address_name,category_group_code,category_group_name,category_name,distance,id,phone,place_name,place_url,road_address_name,x,y
경기 고양시 일산동구 식사동 861-15,FD6,음식점,음식점 > 한식,,27327500,031-969-9199,동무밥상,http://place.map.kakao.com/27327500,경기 고양시 일산동구 고양대로 1032,126.80704394741677,37.672083876060356
서울 중구 필동3가 1-5,FD6,음식점,음식점 > 한식 > 냉면,,11231325,02-2266-2611,필동면옥,http://place.map.kakao.com/11231325,서울 중구 서애로 26,126.99693958989,37.5603983847784
서울 마포구 염리동 147-6,FD6,음식점,음식점 > 한식 > 냉면,,25048467,02-717-1922,을밀대 본점,http://place.map.kakao.com/25048467,서울 마포구 숭문길 24,126.945528667601,37.5474871749408
서울 송파구 방이동 180-7,FD6,음식점,"음식점 > 한식 > 육류,고기",,275788090,02-415-7277,한아람,http://place.map.kakao.com/275788090,서울 송파구 위례성대로 34,127.116018147064,37.5157707627353
서울 송파구 방이동 205,FD6,음식점,음식점 > 한식 > 냉면,,8364935,02-415-5527,봉피양 방이점 본관,http://place.map.kakao.com/8364935,서울 송파구 양재대로71길 5,127.12599896562895,37.510207652434715
서울 영등포구 여의도동 13-1,FD6,음식점,음식점 > 한식 > 냉면,,23699720,02-2683-2615,정인면옥 본점,http://place.map.kakao.com/23699720,서울 영등포구 국회대로76길 10,126.92157407940762,37.53077816623998
서울 강남구 삼성동 151-7,FD6,음식점,음식점 > 한식 > 냉면,,27261403,02-569-8939,능라도 강남점,http://place.map.kakao.com/27261403,서울 강남구 삼성로 534,127.05553416938561,37.509677046854954
서울 중구 저동2가 18-1,FD6,음식점,음식점 > 한식 > 냉면,,12106466,02-2267-5892,평래옥,http://place.map.kakao.com/12106466,서울 중구 마른내로 21-1,126.99036546529,37.564910222013
서울 서대문구 연희동 193-13,FD6,음식점,음식점 > 한식 > 냉면,,10161291,02-392-7461,평택고여사집냉면,http://place.map.kakao.com/10161291,서울 서대문구 연희로 81-9,126.929256985769,37.5656750889717
경기 수원시 장안구 조원동 53-1,FD6,음식점,"음식점 > 한식 > 육류,고기 > 갈비",,1248099535,031-255-8040,육미옥 조원점,http://place.map.kakao.com/1248099535,경기 수원시 장안구 수일로 221,127.014754219752,37.3069380263724
서울 강남구 역삼동 826-37,FD6,음식점,음식점 > 한식 > 냉면,,12418029,02-552-1922,을밀대 강남점,http://place.map.kakao.com/12418029,서울 강남구 테헤란로4길 46,127.030740331534,37.4952411777316
서울 강남구 신사동 645-30,FD6,음식점,음식점 > 한식 > 냉면,,8177726,02-3445-0092,강서면옥 압구정점,http://place.map.kakao.com/8177726,서울 강남구 언주로164길 19,127.03512404303498,37.525564162874
경기 양주시 장흥면 교현리 114-23,FD6,음식점,음식점 > 한식,,1840305039,031-877-3917,만포면옥 본점,http://place.map.kakao.com/1840305039,경기 양주시 장흥면 호국로 515,126.971498960166,37.7171726571246
서울 종로구 행촌동 1-64,FD6,음식점,음식점 > 한식,,18080093,02-747-9907,능라밥상,http://place.map.kakao.com/18080093,서울 종로구 사직로2길 14,126.96400246153803,37.57292939351623
경기 안양시 동안구 비산동 1015-3,FD6,음식점,음식점 > 한식 > 냉면,,10459955,031-383-5191,봉가진면옥,http://place.map.kakao.com/10459955,경기 안양시 동안구 평촌대로427번길 27,126.948941239786,37.4084521374866
서울 중구 남창동 47-10,FD6,음식점,음식점 > 한식 > 냉면,,7914330,02-753-7728,부원면옥,http://place.map.kakao.com/7914330,서울 중구 남대문시장4길 41-6,126.977604365846,37.5584213149079
서울 강남구 논현동 115-10,FD6,음식점,음식점 > 한식 > 냉면,,27584230,02-515-3469,진미평양냉면,http://place.map.kakao.com/27584230,서울 강남구 학동로 305-3,127.036047158128,37.5161357904841
서울 강서구 화곡동 1103,FD6,음식점,음식점 > 한식 > 냉면,,26779187,02-2690-7288,평양냉면대동관 강서점,http://place.map.kakao.com/26779187,서울 강서구 우장산로 120,126.84932803770114,37.55309340985893
인천 서구 청라동 133-13,FD6,음식점,음식점 > 한식 > 국수,,1249155985,032-576-3939,강선생의냉면막국수,http://place.map.kakao.com/1249155985,인천 서구 담지로86번길 5-41,126.66222101002576,37.537898542362655
서울 강남구 논현동 66-2,FD6,음식점,음식점 > 한식 > 냉면,,8130016,02-549-5378,평양면옥,http://place.map.kakao.com/8130016,서울 강남구 논현로150길 6,127.029148302031,37.5189524291083
서울 서초구 잠원동 29-23,FD6,음식점,음식점 > 한식 > 냉면,,10886792,02-547-6947,의정부평양면옥,http://place.map.kakao.com/10886792,서울 서초구 강남대로93길 28,127.01893900013093,37.51296103094697
경기 남양주시 진접읍 부평리 602-1,FD6,음식점,"음식점 > 한식 > 육류,고기 > 불고기,두루치기",,21555703,031-574-6630,광릉한옥집,http://place.map.kakao.com/21555703,경기 남양주시 진접읍 광릉내로 36,127.19930094194743,37.74306098571575
서울 양천구 신정2동 294-12,FD6,음식점,음식점 > 한식 > 냉면,,12711142,02-2644-0721,평미가,http://place.map.kakao.com/12711142,서울 양천구 목동동로10길 16,126.871533914356,37.5189618461368
경기 성남시 분당구 운중동 883-3,FD6,음식점,음식점 > 한식 > 냉면,,14747791,031-781-3989,능라도 본점,http://place.map.kakao.com/14747791,경기 성남시 분당구 산운로32번길 12,127.065181344398,37.3917474696144
경북 구미시 진평동 62-2,FD6,음식점,"음식점 > 한식 > 육류,고기 > 갈비",,26326751,054-472-0090,안박사면옥 인동본점,http://place.map.kakao.com/26326751,경북 구미시 인동남길 136,128.429592523118,36.0954199317363
서울 영등포구 여의도동 50,FD6,음식점,음식점 > 한식 > 냉면,,10925094,,한주면옥,http://place.map.kakao.com/10925094,서울 영등포구 63로 45,126.939683675789,37.5210561798174
서울 강남구 삼성동 8-1,FD6,음식점,음식점 > 한식,,26794399,02-546-2305,봉밀가,http://place.map.kakao.com/26794399,서울 강남구 선릉로 664,127.04208160106053,37.515803126376866
서울 중구 주교동 118-1,FD6,음식점,음식점 > 한식 > 냉면,,8025375,02-2265-0151,우래옥 본점,http://place.map.kakao.com/8025375,서울 중구 창경궁로 62-29,126.99871865898974,37.56821185731751
서울 중구 장충동1가 13,FD6,음식점,음식점 > 한식 > 냉면,,13093208,02-2267-7784,평양면옥 본점,http://place.map.kakao.com/13093208,서울 중구 장충단로 207,127.00669603395768,37.56324808702588
서울 은평구 갈현동 463-1,FD6,음식점,음식점 > 한식,,16852004,02-389-3917,백년가게 만포면옥 본점,http://place.map.kakao.com/16852004,서울 은평구 연서로 171,126.9174907433,37.6141228091598
경기 의정부시 의정부동 385,FD6,음식점,음식점 > 한식 > 냉면,,10883976,031-877-2282,평양면옥 의정부본점,http://place.map.kakao.com/10883976,경기 의정부시 평화로439번길 7,127.04751996690172,37.73092166124022
경기 구리시 아천동 316-47,,,"여행 > 관광,명소",,11427305,031-550-2363,고구려대장간마을,http://place.map.kakao.com/11427305,경기 구리시 우미내길 41,127.111057789347,37.5605552233289
서울 구로구 오류동 13-55,FD6,음식점,음식점 > 한식 > 냉면,,25049372,02-2614-2263,평양냉면,http://place.map.kakao.com/25049372,서울 구로구 고척로10길 65,126.8422023938924,37.496388585633234
서울 영등포구 여의도동 13-1,FD6,음식점,음식점 > 한식 > 냉면,,23699720,02-2683-2615,정인면옥 본점,http://place.map.kakao.com/23699720,서울 영등포구 국회대로76길 10,126.92157407940762,37.53077816623998
서울 광진구 구의동 80-47,FD6,음식점,음식점 > 한식 > 냉면,,7939102,02-457-8319,서북면옥,http://place.map.kakao.com/7939102,서울 광진구 자양로 199-1,127.08534387836,37.5453966002957
서울 중구 다동 121-4,FD6,음식점,음식점 > 한식 > 냉면,,21232315,02-777-3131,남포면옥,http://place.map.kakao.com/21232315,서울 중구 을지로3길 24,126.981753597164,37.5671652991647
서울 종로구 낙원동 221,FD6,음식점,음식점 > 한식 > 냉면,,8041476,,유진식당,http://place.map.kakao.com/8041476,서울 종로구 종로17길 40,126.9883179183545,37.57204231870933
서울 마포구 상암동 1597,FD6,음식점,"음식점 > 한식 > 육류,고기",,581926970,02-304-9293,배꼽집 상암DMC점,http://place.map.kakao.com/581926970,서울 마포구 월드컵북로54길 17,126.888567163258,37.5813498306642
서울 동대문구 제기동 1013,FD6,음식점,음식점 > 한식 > 냉면,,810920158,02-965-8258,경동시장 평양냉면,http://place.map.kakao.com/810920158,서울 동대문구 왕산로29길 4,127.040075960828,37.5789557323408
서울 마포구 망원동 428-42,FD6,음식점,음식점 > 한식,,1773999964,02-335-3678,달고나,http://place.map.kakao.com/1773999964,서울 마포구 망원로3길 30,126.9011261123124,37.55801353159328
서울 마포구 도화동 204-9,FD6,음식점,음식점 > 한식,,1130498627,0507-1371-1092,서경도락 마포점,http://place.map.kakao.com/1130498627,서울 마포구 삼개로 21,126.9476081398492,37.53840333834639
경기 수원시 팔달구 팔달로1가 64-1,FD6,음식점,음식점 > 한식 > 냉면,,8272484,031-255-7493,대원옥,http://place.map.kakao.com/8272484,경기 수원시 팔달구 정조로800번길 6-3,127.017234040133,37.2793767496981
경기 의정부시 호원동,,,부동산 > 지명,,25351670,,장수원,http://place.map.kakao.com/25351670,,127.045756226663,37.7073547200729
경기 양주시 장흥면 교현리 114-23,FD6,음식점,음식점 > 한식,,1840305039,031-877-3917,만포면옥 본점,http://place.map.kakao.com/1840305039,경기 양주시 장흥면 호국로 515,126.971498960166,37.7171726571246
서울 동작구 사당동 134-3,FD6,음식점,음식점 > 한식 > 냉면,,27282095,,이수면옥,http://place.map.kakao.com/27282095,서울 동작구 동작대로 123,126.98187695555,37.4877510094111
서울 서초구 방배동 836-5,FD6,음식점,음식점 > 한식 > 냉면,,1999359775,02-533-0329,흥미면옥,http://place.map.kakao.com/1999359775,서울 서초구 방배로 189,126.9917568365484,37.49026592361064
서울 중구 장충동2가 187-14,FD6,음식점,음식점 > 한식 > 냉면,,8608759,02-2279-2770,함흥에겨울냉면,http://place.map.kakao.com/8608759,서울 중구 동호로24길 21,127.005228940529,37.560189277372
서울 마포구 도화동 179-1,FD6,음식점,음식점 > 한식 > 냉면,,19153287,,산까치냉면,http://place.map.kakao.com/19153287,서울 마포구 도화길 35,126.9495432132488,37.54139099577898
서울 송파구 문정동 98,FD6,음식점,음식점 > 한식 > 냉면,,20512607,02-409-5054,연백냉면,http://place.map.kakao.com/20512607,서울 송파구 새말로12길 7,127.12931068327904,37.48266482288441
서울 성북구 삼선동4가 345-1,FD6,음식점,음식점 > 한식 > 냉면,,26481780,02-921-3451,혜화면옥,http://place.map.kakao.com/26481780,서울 성북구 보문로 193-1,127.01389067982205,37.59084041124726
경북 청송군 현서면 덕계리 332-1,FD6,음식점,음식점 > 한식 > 냉면,,508703953,,덕계함흥냉면,http://place.map.kakao.com/508703953,경북 청송군 현서면 청송로 1345,128.900268731146,36.2889442616305
서울 강남구 신사동 516-11,FD6,음식점,음식점 > 한식 > 국수,,24167310,02-545-3297,송옥 강남본점 가로수길,http://place.map.kakao.com/24167310,서울 강남구 강남대로154길 43,127.02239732123687,37.51866558118071
서울 강남구 역삼동 828-55,FD6,음식점,"음식점 > 일식 > 돈까스,우동",,8015540,02-569-8610,오무라안,http://place.map.kakao.com/8015540,서울 강남구 논현로79길 66,127.033576859931,37.4961810566319
서울 강서구 내발산동 700,FD6,음식점,음식점 > 한식 > 국수,,21360740,02-2064-2626,똑순이막국수,http://place.map.kakao.com/21360740,서울 강서구 강서로47길 19,126.83513890129785,37.55254376365585
서울 마포구 성산동 138-4,FD6,음식점,음식점 > 한식 > 냉면,,745047863,02-304-9110,대동관,http://place.map.kakao.com/745047863,서울 마포구 모래내로7길 62,126.909616291226,37.5676925306156
충남 예산군 삽교읍 두리 568-50,AT4,관광명소,"여행 > 관광,명소 > 테마거리 > 먹자골목",,215793876,,삽교시장 곱창특화거리,http://place.map.kakao.com/215793876,충남 예산군 삽교읍 삽교로4길 7-11,126.740992266169,36.6866293599881
서울 마포구 염리동 149-9,FD6,음식점,음식점 > 한식,,7990640,02-703-5959,아소정,http://place.map.kakao.com/7990640,서울 마포구 백범로25길 9,126.946389315311,37.5466190059557
서울 중구 주교동 56-3,FD6,음식점,음식점 > 한식,,12394402,02-2273-1591,강산옥,http://place.map.kakao.com/12394402,서울 중구 청계천로 196-1,126.999429503644,37.568907431526
서울 강동구 길동 334-5,FD6,음식점,음식점 > 한식 > 국수,,13287059,,민성막국수,http://place.map.kakao.com/13287059,서울 강동구 양재대로124길 19,127.143231147319,37.5430880772249
경기 광주시 송정동 113-19,FD6,음식점,음식점 > 한식,,8848724,031-761-3880,담안식당,http://place.map.kakao.com/8848724,경기 광주시 중앙로187번길 10,127.25587400558945,37.416377434717376
서울 중구 북창동 93-36,FD6,음식점,음식점 > 한식 > 곰탕,,15892869,02-352-0303,애성회관,http://place.map.kakao.com/15892869,서울 중구 남대문로5길 23,126.97891384153051,37.562409368174585
서울 강남구 개포동 1215-1,FD6,음식점,음식점 > 한식 > 국수,,9011542,02-574-3216,밀란국수 개포본점,http://place.map.kakao.com/9011542,서울 강남구 개포로28길 4,127.04912564342,37.4785374820562
서울 강남구 논현동 83-19,FD6,음식점,음식점 > 한식 > 국수,,8121093,02-541-8200,가람국시 논현동점,http://place.map.kakao.com/8121093,서울 강남구 언주로135길 13,127.034115460694,37.5167706707282
서울 종로구 관훈동 198-31,FD6,음식점,음식점 > 한식 > 국수,,27548252,,베테랑 인사동점,http://place.map.kakao.com/27548252,서울 종로구 인사동5길 14,126.98541990070932,37.57274477250097
서울 동대문구 용두동 711-4,FD6,음식점,음식점 > 한식 > 두부전문점,,1209528306,02-957-1337,콩보 제기점,http://place.map.kakao.com/1209528306,서울 동대문구 왕산로 112-4,127.03577350507,37.5778759216785
서울 양천구 신정동 1048-7,FD6,음식점,음식점 > 한식 > 국수 > 칼국수,,8344070,02-2652-9991,살구나무집칼국수,http://place.map.kakao.com/8344070,서울 양천구 중앙로32길 35,126.85757184784914,37.51950085238376
서울 마포구 용강동 122-13,FD6,음식점,음식점 > 한식 > 해장국,,13290723,02-712-6134,서씨네해장국,http://place.map.kakao.com/13290723,서울 마포구 토정로 290,126.941364709741,37.5412250380936
서울 성북구 정릉동 488-1,FD6,음식점,음식점 > 한식,,10380858,02-918-1668,봉화묵집,http://place.map.kakao.com/10380858,서울 성북구 아리랑로19길 46-2,127.010722032742,37.6027374309408
서울 강서구 공항동 672-10,FD6,음식점,음식점 > 한식 > 국밥,,25506306,02-6371-0056,전주뜰콩나물국밥,http://place.map.kakao.com/25506306,서울 강서구 방화대로5나길 6,126.816053348725,37.5551554935147
경기 하남시 풍산동 595-1,FD6,음식점,음식점 > 한식 > 국수,,2100098947,,백운봉 막국수,http://place.map.kakao.com/2100098947,경기 하남시 미사강변중앙로7번안길 25,127.19117963418938,37.54943979270791
경기 수원시 영통구 하동 983-2,FD6,음식점,음식점 > 한식 > 해장국,,1915452438,070-4833-8247,유명국양평해장국 본점,http://place.map.kakao.com/1915452438,경기 수원시 영통구 광교중앙로 256,127.068008864092,37.2926983454688
경기 포천시 영중면 영송리 153-3,FD6,음식점,음식점 > 한식 > 국수,,134733253,,옥합,http://place.map.kakao.com/134733253,경기 포천시 영중면 전영로 1556,127.22828366700759,38.008186795906774
서울 은평구 녹번동 185,FD6,음식점,"음식점 > 한식 > 육류,고기",,10188825,02-354-7788,우주미,http://place.map.kakao.com/10188825,서울 은평구 은평로 185,126.928280236177,37.6021863442287
서울 영등포구 양평동4가 101-1,FD6,음식점,"음식점 > 한식 > 해물,생선",,13499678,,원조북어국,http://place.map.kakao.com/13499678,서울 영등포구 양평로 117-1,126.89436445320092,37.53748563449311
서울 종로구 부암동 245-2,FD6,음식점,음식점 > 분식,,8505372,02-379-2648,자하손만두,http://place.map.kakao.com/8505372,서울 종로구 백석동길 12,126.966044472281,37.5931212602688
서울 종로구 동숭동 199-21,FD6,음식점,음식점 > 한식 > 국수,,13578091,,모티집,http://place.map.kakao.com/13578091,서울 종로구 이화장2길 1,127.004659625902,37.5780938847705
경기 화성시 안녕동 188-562,FD6,음식점,음식점 > 한식 > 냉면,,8598381,031-223-1182,청학동칡냉면,http://place.map.kakao.com/8598381,경기 화성시 효행로 466,126.98552951231945,37.20949205803589
서울 강서구 화곡동 986-16,FD6,음식점,음식점 > 한식 > 냉면,,16073611,02-2691-2230,명가냉면,http://place.map.kakao.com/16073611,서울 강서구 화곡로 277,126.84731856214971,37.54955981953704
경기 부천시 상동 573-1,FD6,음식점,"음식점 > 한식 > 육류,고기 > 갈비",,19629369,032-324-8600,삼도갈비,http://place.map.kakao.com/19629369,경기 부천시 상이로85번길 32,126.742596914096,37.49671270577
경기 화성시 안녕동 188-562,FD6,음식점,음식점 > 한식 > 냉면,,8598381,031-223-1182,청학동칡냉면,http://place.map.kakao.com/8598381,경기 화성시 효행로 466,126.98552951231945,37.20949205803589
서울 도봉구 창동 337-1,FD6,음식점,음식점 > 한식,,14701954,02-900-9800,하누소 창동본점,http://place.map.kakao.com/14701954,서울 도봉구 노해로 327,127.0448063295615,37.651519639360096
서울 성동구 행당동 299-1,FD6,음식점,음식점 > 중식 > 중국요리,,1658512250,02-2281-9031,춘향미엔,http://place.map.kakao.com/1658512250,서울 성동구 왕십리로21길 26,127.03202115543138,37.56046976592757
강원특별자치도 속초시 조양동 1287-9,FD6,음식점,음식점 > 한식 > 냉면,,10760412,033-632-3181,이조면옥,http://place.map.kakao.com/10760412,강원특별자치도 속초시 동해대로 3887,128.6007076373087,38.182135950869004
서울 중구 오장동 101-7,FD6,음식점,음식점 > 한식 > 냉면,,8174854,02-2266-0735,오장동흥남집 본점,http://place.map.kakao.com/8174854,서울 중구 마른내로 114,127.00056593411459,37.564348392118056
서울 성북구 안암동5가 147-9,FD6,음식점,음식점 > 한식 > 냉면,,10501014,02-929-4610,서울쌈냉면 고대점,http://place.map.kakao.com/10501014,서울 성북구 개운사길 21-4,127.028871568485,37.5874787976777
경기 동두천시 생연동 818-142,FD6,음식점,음식점 > 한식 > 냉면,,8132220,031-865-2413,평남면옥,http://place.map.kakao.com/8132220,경기 동두천시 생연로 127,127.05118764639475,37.90386340952936
경기 화성시 안녕동 188-562,FD6,음식점,음식점 > 한식 > 냉면,,8598381,031-223-1182,청학동칡냉면,http://place.map.kakao.com/8598381,경기 화성시 효행로 466,126.98552951231945,37.20949205803589
서울 종로구 창신동 81-8,FD6,음식점,음식점 > 한식 > 냉면,,11021281,02-743-7285,낙산냉면,http://place.map.kakao.com/11021281,서울 종로구 지봉로5길 8,127.015277764702,37.5744890103185
서울 종로구 인의동 112-14,FD6,음식점,음식점 > 한식 > 냉면,,8146505,02-2267-6922,함흥곰보냉면,http://place.map.kakao.com/8146505,서울 종로구 창경궁로 109,126.9970104467935,37.571585153324456
서울 강남구 논현동 96,FD6,음식점,음식점 > 한식 > 냉면,,15654927,02-518-7228,신사면옥,http://place.map.kakao.com/15654927,서울 강남구 도산대로46길 11,127.036655901063,37.5211487850902
서울 강남구 청담동 4-5,FD6,음식점,음식점 > 일식,,580355685,,유노추보,http://place.map.kakao.com/580355685,서울 강남구 도산대로 442,127.04412773991,37.523344676306
서울 중구 명동2가 26-1,FD6,음식점,음식점 > 한식 > 냉면,,7871208,02-776-8430,명동함흥면옥 본점,http://place.map.kakao.com/7871208,서울 중구 명동10길 35-19,126.98568556457165,37.562769881012464
서울 광진구 자양동 227,FD6,음식점,음식점 > 한식 > 냉면,,603841760,02-454-7353,신창면옥,http://place.map.kakao.com/603841760,서울 광진구 자양번영로 67,127.0761680519,37.5355495425173
서울 성동구 행당동 299-1,FD6,음식점,음식점 > 중식 > 중국요리,,1658512250,02-2281-9031,춘향미엔,http://place.map.kakao.com/1658512250,서울 성동구 왕십리로21길 26,127.03202115543138,37.56046976592757
서울 용산구 원효로4가 127-2,FD6,음식점,음식점 > 한식 > 냉면,,26971351,02-719-1290,신라면옥,http://place.map.kakao.com/26971351,서울 용산구 원효로 69,126.951544619309,37.5330413627371
경기 화성시 안녕동 188-562,FD6,음식점,음식점 > 한식 > 냉면,,8598381,031-223-1182,청학동칡냉면,http://place.map.kakao.com/8598381,경기 화성시 효행로 466,126.98552951231945,37.20949205803589
전북 익산시 어양동,,,부동산 > 지명,,25395791,,혜교,http://place.map.kakao.com/25395791,,126.980920506881,35.9575010928882
서울 성동구 행당동 299-1,FD6,음식점,음식점 > 중식 > 중국요리,,1658512250,02-2281-9031,춘향미엔,http://place.map.kakao.com/1658512250,서울 성동구 왕십리로21길 26,127.03202115543138,37.56046976592757
대전 서구 둔산동 1440,FD6,음식점,"음식점 > 일식 > 돈까스,우동",,16800756,042-487-1692,미진,http://place.map.kakao.com/16800756,대전 서구 둔산중로40번길 28,127.38825211253962,36.34996911688981
서울 광진구 화양동 302-25,FD6,음식점,음식점 > 한식 > 냉면,,10921559,02-447-8806,함흥본가면옥 건대점,http://place.map.kakao.com/10921559,서울 광진구 광나루로 456,127.07986226799,37.5451805911085
부산 부산진구 부전동 516-68,FD6,음식점,"음식점 > 한식 > 육류,고기 > 갈비",,8368121,051-816-8803,부산쪽쪽갈비,http://place.map.kakao.com/8368121,부산 부산진구 중앙대로691번가길 32,129.055605652178,35.1556912586169
서울 은평구 응암동 427-165,FD6,음식점,음식점 > 한식 > 냉면,,16413621,02-387-1434,시장냉면,http://place.map.kakao.com/16413621,서울 은평구 응암로22길 5-17,126.91879439285482,37.594327162306236
서울 종로구 필운동 205-1,FD6,음식점,음식점 > 한식 > 냉면,,11975982,,이가면옥,http://place.map.kakao.com/11975982,서울 종로구 자하문로1길 33,126.97039458292083,37.5764747816119
경기 고양시 일산동구 마두동 806,FD6,음식점,음식점 > 한식 > 냉면,,9216726,,경성면옥함흥냉면전문점,http://place.map.kakao.com/9216726,경기 고양시 일산동구 중앙로 1130,126.780435004708,37.6493849083423
서울 서초구 방배동 850-1,FD6,음식점,"음식점 > 일식 > 돈까스,우동",,23122567,,묘오또 방배점,http://place.map.kakao.com/23122567,서울 서초구 방배로28길 16,126.99305719239591,37.49033087973123
서울 성동구 행당동 299-1,FD6,음식점,음식점 > 중식 > 중국요리,,1658512250,02-2281-9031,춘향미엔,http://place.map.kakao.com/1658512250,서울 성동구 왕십리로21길 26,127.03202115543138,37.56046976592757
서울 강서구 염창동 280-6,FD6,음식점,"음식점 > 한식 > 육류,고기 > 닭요리",,9370927,02-3665-3930,유림 닭도리탕,http://place.map.kakao.com/9370927,서울 강서구 공항대로71길 5,126.87171977039051,37.547826497941145
경기 화성시 안녕동 188-562,FD6,음식점,음식점 > 한식 > 냉면,,8598381,031-223-1182,청학동칡냉면,http://place.map.kakao.com/8598381,경기 화성시 효행로 466,126.98552951231945,37.20949205803589
경기 양주시 장흥면 부곡리 535-17,FD6,음식점,음식점 > 한식 > 냉면,,15305287,031-826-4231,평양면옥 송추본점,http://place.map.kakao.com/15305287,경기 양주시 장흥면 호국로 615,126.98213122179126,37.72034436967037
서울 은평구 응암동 427-165,FD6,음식점,음식점 > 한식 > 냉면,,16413621,02-387-1434,시장냉면,http://place.map.kakao.com/16413621,서울 은평구 응암로22길 5-17,126.91879439285482,37.594327162306236
서울 중구 오장동 90-10,FD6,음식점,음식점 > 한식 > 냉면,,20747449,02-2267-9500,오장동함흥냉면,http://place.map.kakao.com/20747449,서울 중구 마른내로 108,126.99987775835788,37.56427090773028
서울 강남구 삼성동 151-7,FD6,음식점,음식점 > 한식 > 냉면,,27261403,02-569-8939,능라도 강남점,http://place.map.kakao.com/27261403,서울 강남구 삼성로 534,127.05553416938561,37.509677046854954
서울 은평구 응암동 427-165,FD6,음식점,음식점 > 한식 > 냉면,,16413621,02-387-1434,시장냉면,http://place.map.kakao.com/16413621,서울 은평구 응암로22길 5-17,126.91879439285482,37.594327162306236
서울 강서구 마곡동 774-12,FD6,음식점,음식점 > 한식 > 냉면,,521282981,02-2084-7000,오장동본가면옥,http://place.map.kakao.com/521282981,서울 강서구 마곡동로 55,126.83292298187163,37.56018019833444
서울 강남구 대치동 1023-2,FD6,음식점,음식점 > 한식 > 냉면,,21444915,02-562-3989,대치동함흥면옥,http://place.map.kakao.com/21444915,서울 강남구 도곡로 424,127.05693291082689,37.49729115968169
부산 동구 초량동 363-2,FD6,음식점,음식점 > 한식 > 국수,,27365831,,초량밀면,http://place.map.kakao.com/27365831,부산 동구 중앙대로 225,129.04059130549194,35.11731387463027
서울 서초구 방배동 797-19,FD6,음식점,음식점 > 한식 > 냉면,,24726061,02-536-1423,서초면옥 본점,http://place.map.kakao.com/24726061,서울 서초구 동광로 97,126.993115659813,37.4939439225313
광주 서구 금호동 799,FD6,음식점,음식점 > 한식 > 냉면,,19024511,062-653-3119,금성칡냉면 금호점,http://place.map.kakao.com/19024511,광주 서구 풍금로171번길 5,126.858739790468,35.1310307542722
서울 서초구 서초동 1668-7,FD6,음식점,음식점 > 일식,,18253256,02-522-0373,미나미,http://place.map.kakao.com/18253256,서울 서초구 서초대로58길 31-2,127.018119869228,37.4933300487122
서울 은평구 대조동 194-28,FD6,음식점,음식점 > 한식,,10342053,02-386-8903,메밀마을,http://place.map.kakao.com/10342053,서울 은평구 연서로26길 23-1,126.92168857115432,37.61596728962113
서울 용산구 동빙고동 7-19,FD6,음식점,음식점 > 한식 > 국수,,9341771,02-797-2307,유진막국수,http://place.map.kakao.com/9341771,서울 용산구 장문로 18,126.99239296801,37.5284379311332
강원특별자치도 홍천군 남면 양덕원리 142-28,FD6,음식점,음식점 > 한식 > 국수,,15407886,033-432-9088,내고향막국수,http://place.map.kakao.com/15407886,강원특별자치도 홍천군 남면 양덕원로 53-1,127.768245532146,37.613961032204
서울 서초구 방배동 793-1,FD6,음식점,음식점 > 한식 > 국수,,16013228,02-3482-3738,양양메밀막국수,http://place.map.kakao.com/16013228,서울 서초구 동광로15길 10,126.9882850843,37.4925163469457
서울 중구 명동1가 54-17,FD6,음식점,음식점 > 한식,,535835882,02-777-8488,중일면옥,http://place.map.kakao.com/535835882,서울 중구 명동길 25-4,126.98392303186743,37.56393824652791
서울 종로구 관훈동 196-8,FD6,음식점,음식점 > 한식 > 냉면,,13559590,,인사면옥,http://place.map.kakao.com/13559590,서울 종로구 인사동길 35-3,126.985283903137,37.5735484431037
서울 송파구 문정동 343-1,FD6,음식점,음식점 > 한식 > 냉면,,2027970955,02-407-8807,함흥본가면옥 문정점,http://place.map.kakao.com/2027970955,서울 송파구 법원로 114,127.12048799552414,37.4852636465967
서울 중구 남대문로4가 20-60,FD6,음식점,"음식점 > 일식 > 돈까스,우동",,15463889,02-757-3936,우모촌,http://place.map.kakao.com/15463889,서울 중구 남대문시장길 7,126.97642679252881,37.56008342521614
서울 강남구 논현동 95-11,FD6,음식점,"음식점 > 한식 > 찌개,전골",,16056569,02-545-7605,이모가있는집 본점,http://place.map.kakao.com/16056569,서울 강남구 도산대로54길 14,127.03849560860266,37.52183296191831
서울 강동구 암사동 496-17,FD6,음식점,"음식점 > 한식 > 찌개,전골",,10839462,02-442-3546,초롱이고모부대찌개,http://place.map.kakao.com/10839462,서울 강동구 상암로11길 4,127.1288450965,37.5499089904455
서울 강동구 성내동 81-14,FD6,음식점,"음식점 > 한식 > 찌개,전골",,21329909,,강동KD부대찌개나눔터,http://place.map.kakao.com/21329909,서울 강동구 올림픽로62길 7,127.123318561252,37.5364359468351
서울 서초구 서초1동 1443-27,FD6,음식점,"음식점 > 한식 > 찌개,전골",,8388894,02-521-2666,삼보부대찌개,http://place.map.kakao.com/8388894,서울 서초구 효령로68길 102,127.019406926684,37.4854081842668
서울 강남구 신사동 640-1,FD6,음식점,"음식점 > 한식 > 찌개,전골",,10215748,,금성스테이크부대찌개,http://place.map.kakao.com/10215748,서울 강남구 언주로174길 26,127.035851485836,37.52798763963455
서울 동작구 노량진동 206-19,FD6,음식점,"음식점 > 한식 > 찌개,전골",,26783424,02-817-1123,마마부찌,http://place.map.kakao.com/26783424,서울 동작구 만양로14길 40,126.94629633132,37.5121718733123
서울 서초구 양재동 17-22,FD6,음식점,음식점 > 한식,,24583148,02-576-1008,남와집 양재점,http://place.map.kakao.com/24583148,서울 서초구 강남대로30길 34,127.039092520943,37.4820695791013
서울 서초구 서초동 1337-22,FD6,음식점,"음식점 > 한식 > 찌개,전골",,20032680,02-581-1780,금강섞어찌개,http://place.map.kakao.com/20032680,서울 서초구 강남대로 321,127.029865848391,37.4915076285908
경기 안성시 당왕동 346-1,FD6,음식점,음식점 > 한식,,9990637,031-671-1259,풍어촌,http://place.map.kakao.com/9990637,경기 안성시 실왕길 15,127.26645496685263,37.02518831639068
서울 중구 을지로6가 18-37,FD6,음식점,"음식점 > 한식 > 해물,생선 > 게,대게",,27228581,02-2268-2059,순미네행복게장 동대문직영점,http://place.map.kakao.com/27228581,서울 중구 을지로43길 38,127.007764965042,37.567710655287
서울 마포구 성산동 232-12,FD6,음식점,"음식점 > 한식 > 해물,생선 > 게,대게",,26903876,02-323-1112,홍익게장 홍대본점,http://place.map.kakao.com/26903876,서울 마포구 월드컵북로 59,126.916781621264,37.5592951085469
서울 강남구 신사동 664,FD6,음식점,"음식점 > 한식 > 육류,고기 > 닭요리 > 삼계탕",,8501640,02-516-4747,영양센타,http://place.map.kakao.com/8501640,서울 강남구 압구정로 344,127.03982451491412,37.52768363013356
서울 중구 충무로1가 25-32,FD6,음식점,"음식점 > 한식 > 육류,고기 > 닭요리",,11185781,02-776-2015,영양센타 본점,http://place.map.kakao.com/11185781,서울 중구 명동2길 52,126.983167584991,37.5611072100711
서울 강서구 방화동 609-30,FD6,음식점,"음식점 > 한식 > 해물,생선 > 게,대게",,21311158,02-2663-5292,삼순이게장,http://place.map.kakao.com/21311158,서울 강서구 방화동로 56,126.812537481379,37.5653816704314
서울 서대문구 연희동 133-20,FD6,음식점,"음식점 > 한식 > 육류,고기 > 닭요리 > 삼계탕",,16735266,02-323-3208,연희녹두삼계탕,http://place.map.kakao.com/16735266,서울 서대문구 연희맛로 43-1,126.931219155561,37.5687071978768
서울 광진구 중곡동 115-19,FD6,음식점,"음식점 > 한식 > 육류,고기 > 닭요리",,17434210,02-456-9912,장인석닭한마리,http://place.map.kakao.com/17434210,서울 광진구 자양로43길 49-6,127.089856388928,37.5527417950966
서울 송파구 잠실동 186-13,FD6,음식점,"음식점 > 한식 > 육류,고기 > 닭요리",,2117466906,010-2740-3366,큰손닭한마리 잠실새내본점,http://place.map.kakao.com/2117466906,서울 송파구 백제고분로15길 59,127.08433145591687,37.51052856594256
서울 중구 중림동 471,FD6,음식점,"음식점 > 한식 > 육류,고기 > 닭요리",,10253905,02-392-1134,닭칼원조집,http://place.map.kakao.com/10253905,서울 중구 청파로 457-1,126.9678114499633,37.56020662932637
부산 동래구 온천동 1234-18,,,"가정,생활 > 미용 > 체형관리",,780556904,,황후명가,http://place.map.kakao.com/780556904,부산 동래구 아시아드대로247번길 11,129.06764215203,35.2060953768365
서울 은평구 불광동 28-11,FD6,음식점,"음식점 > 한식 > 육류,고기 > 닭요리 > 삼계탕",,8414493,02-764-8571,성너머집,http://place.map.kakao.com/8414493,서울 은평구 불광로18길 13-1,126.93279392188497,37.62257270050824
서울 중구 주교동 291-1,FD6,음식점,"음식점 > 한식 > 육류,고기 > 닭요리",,27597222,02-2266-2129,대복닭한마리,http://place.map.kakao.com/27597222,서울 중구 을지로27길 32-30,127.0,37.5682659240123
경기 성남시 중원구 금광동 3736,FD6,음식점,"음식점 > 한식 > 해물,생선 > 게,대게",,870932796,031-602-7100,외할머니돌게장,http://place.map.kakao.com/870932796,경기 성남시 중원구 산성대로372번길 21,127.159547466087,37.4450088608741
경기 포천시 내촌면 음현리 828-5,FD6,음식점,음식점 > 한식 > 국수,,16684327,031-534-1883,별난국수마을 본점,http://place.map.kakao.com/16684327,경기 포천시 내촌면 금강로 2019,127.221635758772,37.76037010452
서울 종로구 종로5가 282-22,FD6,음식점,"음식점 > 한식 > 육류,고기 > 닭요리",,8449040,02-2279-2078,원소닭 원할매소문난원조닭한마리,http://place.map.kakao.com/8449040,서울 종로구 종로40가길 25,127.005297564166,37.5702912431028
전북 군산시 나포면 서포리 449-4,FD6,음식점,음식점 > 한식,,10619811,063-453-8883,옹고집쌈밥,http://place.map.kakao.com/10619811,전북 군산시 나포면 서왕길 34,126.7988471264,36.0170137535593
서울 노원구 공릉동 577-10,FD6,음식점,"음식점 > 한식 > 육류,고기 > 닭요리",,20553565,02-972-7459,닭한마리 공릉본점,http://place.map.kakao.com/20553565,서울 노원구 동일로 1020,127.07472728622254,37.62118813494639
서울 강남구 대치동 1023-8,FD6,음식점,"음식점 > 한식 > 육류,고기 > 닭요리",,10650662,02-565-5253,영양센터 대치동점,http://place.map.kakao.com/10650662,서울 강남구 도곡로 436,127.05813988075,37.4977392730229
서울 영등포구 여의도동 25-5,FD6,음식점,음식점 > 한식,,9542036,02-782-6592,평안도만두집,http://place.map.kakao.com/9542036,서울 영등포구 여의나루로 71,126.926889252272,37.5237807925733
서울 강남구 청담동 75-1,FD6,음식점,"음식점 > 한식 > 육류,고기 > 닭요리",,8088448,02-515-9291,청담영양센터,http://place.map.kakao.com/8088448,서울 강남구 학동로87길 7,127.051075332288,37.5192405115356
서울 강남구 신사동 609-1,FD6,음식점,음식점 > 한식,,7943815,02-548-0090,설매네,http://place.map.kakao.com/7943815,서울 강남구 압구정로30길 23,127.02937948928205,37.52580900216566
서울 광진구 화양동 44-13,FD6,음식점,"음식점 > 한식 > 육류,고기 > 닭요리",,26831018,02-469-4690,선기형 닭한마리,http://place.map.kakao.com/26831018,서울 광진구 동일로24길 18-1,127.066196034661,37.5437150083881
서울 영등포구 양평동4가 77-3,FD6,음식점,"음식점 > 한식 > 육류,고기 > 족발,보쌈",,8049653,0504-3142-1119,이필당보쌈왕족발,http://place.map.kakao.com/8049653,서울 영등포구 양평로17길 12-2,126.895681617259,37.5357586871157
서울 중구 주교동 43-23,FD6,음식점,"음식점 > 한식 > 육류,고기 > 삼겹살",,8050105,02-2265-4669,은주정,http://place.map.kakao.com/8050105,서울 중구 창경궁로8길 32,126.99975663427007,37.56867047080973
서울 성북구 안암동5가 101-28,FD6,음식점,음식점 > 분식,,13086789,02-953-3394,고른햇살,http://place.map.kakao.com/13086789,서울 성북구 개운사길 14,127.02946013518523,37.587004730063086
서울 중구 주교동 89-1,FD6,음식점,"음식점 > 한식 > 육류,고기",,10375797,02-2275-3743,보건옥,http://place.map.kakao.com/10375797,서울 중구 창경궁로8길 12,126.99875940309,37.5685290082279
서울 영등포구 신길동 400-5,FD6,음식점,음식점 > 한식 > 설렁탕,,10164436,02-832-1735,양고바우설렁탕 본점,http://place.map.kakao.com/10164436,서울 영등포구 도림로 272,126.904644364301,37.5023606812962
서울 마포구 서교동 446-60,FD6,음식점,"음식점 > 한식 > 찌개,전골",,10321608,02-333-6101,대청마루,http://place.map.kakao.com/10321608,서울 마포구 동교로 147,126.918320452138,37.555519203261
서울 중구 주교동 118-3,FD6,음식점,음식점 > 한식 > 설렁탕,,7873473,02-2265-0322,문화옥,http://place.map.kakao.com/7873473,서울 중구 창경궁로 62-5,126.99846058244935,37.56807850687044
서울 영등포구 영등포동6가 66-7,FD6,음식점,음식점 > 한식 > 국수,,12983266,02-2634-6848,서민준밀밭,http://place.map.kakao.com/12983266,서울 영등포구 영신로40길 22-1,126.90383555472539,37.521025224647964
서울 마포구 도화동 181-39,FD6,음식점,음식점 > 한식 > 설렁탕,,26973107,02-716-8616,마포양지설렁탕,http://place.map.kakao.com/26973107,서울 마포구 새창로 6,126.95050684717809,37.542029311349644
서울 중구 신당동 251-131,FD6,음식점,음식점 > 한식 > 설렁탕,,8853925,02-2234-9713,느티나무설렁탕,http://place.map.kakao.com/8853925,서울 중구 퇴계로71길 38,127.0128730984691,37.566447012612315
서울 성동구 행당동 299-1,FD6,음식점,음식점 > 중식 > 중국요리,,1658512250,02-2281-9031,춘향미엔,http://place.map.kakao.com/1658512250,서울 성동구 왕십리로21길 26,127.03202115543138,37.56046976592757
경기 화성시 안녕동 188-562,FD6,음식점,음식점 > 한식 > 냉면,,8598381,031-223-1182,청학동칡냉면,http://place.map.kakao.com/8598381,경기 화성시 효행로 466,126.98552951231945,37.20949205803589
서울 서초구 원지동 379-4,FD6,음식점,음식점 > 한식 > 냉면,,8064947,02-2057-5526,조선면옥,http://place.map.kakao.com/8064947,서울 서초구 원터2길 2,127.056593263091,37.4442920846672
서울 성동구 행당동 299-1,FD6,음식점,음식점 > 중식 > 중국요리,,1658512250,02-2281-9031,춘향미엔,http://place.map.kakao.com/1658512250,서울 성동구 왕십리로21길 26,127.03202115543138,37.56046976592757
경기 시흥시 정왕동 1802-6,FD6,음식점,음식점 > 한식 > 냉면,,8376039,031-432-9449,서울냉면,http://place.map.kakao.com/8376039,경기 시흥시 다솜마을2길 5-2,126.74047308149252,37.350430016406655
충남 논산시 내동 1205,FD6,음식점,음식점 > 한식 > 냉면,,800203641,041-735-5005,함흥면옥,http://place.map.kakao.com/800203641,충남 논산시 대학로 81,127.107008549007,36.1792963517783
충북 충주시 단월동 12-8,FD6,음식점,음식점 > 한식 > 국수,,22311845,043-848-5508,원조중앙탑막국수,http://place.map.kakao.com/22311845,충북 충주시 중원대로 3018,127.91913729377828,36.9424964386233
강원특별자치도 속초시 조양동 1519,FD6,음식점,음식점 > 한식 > 국수,,1497966317,033-636-6364,봉평막국수,http://place.map.kakao.com/1497966317,강원특별자치도 속초시 선사로4길 5,128.591664690579,38.1886547142851
서울 광진구 구의동 218-1,FD6,음식점,음식점 > 한식 > 국수,,13113794,02-444-7833,민속손국시,http://place.map.kakao.com/13113794,서울 광진구 아차산로 458,127.09318954223293,37.53936298370789
서울 강남구 역삼동 823-38,FD6,음식점,음식점 > 한식 > 국수,,27204005,02-554-1855,우밀가안동국시 역삼점,http://place.map.kakao.com/27204005,서울 강남구 테헤란로10길 21,127.032817780264,37.4981094238993
강원특별자치도 평창군 봉평면 창동리 682,FD6,음식점,음식점 > 한식,,12095115,033-335-4594,메밀꽃필무렵,http://place.map.kakao.com/12095115,강원특별자치도 평창군 봉평면 이효석길 33-13,128.360288097673,37.6109419472088
경북 경주시 하동 347,FD6,음식점,음식점 > 한식 > 한정식,,21221801,054-771-6424,맛자랑,http://place.map.kakao.com/21221801,경북 경주시 보불로 329,129.306231988274,35.8122651714392
서울 서초구 방배동 873-18,FD6,음식점,음식점 > 한식,,11557414,02-533-7199,일미옥,http://place.map.kakao.com/11557414,서울 서초구 서초대로19길 10-21,126.99236540441,37.4880584954415
서울 서대문구 연희동 82-3,FD6,음식점,음식점 > 한식 > 쌈밥,,16904322,02-336-9483,녹원쌈밥,http://place.map.kakao.com/16904322,서울 서대문구 연희로25길 22,126.934154339228,37.5724750312594
서울 종로구 재동 84-22,FD6,음식점,음식점 > 분식,,19158798,02-794-4243,깡통만두,http://place.map.kakao.com/19158798,서울 종로구 북촌로2길 5-6,126.986084505317,37.5781652360883
서울 강남구 논현동 141-7,FD6,음식점,음식점 > 한식 > 국수,,13624172,02-3444-5488,손국시,http://place.map.kakao.com/13624172,서울 강남구 학동로2길 19,127.02292861395,37.5100915260471
서울 중구 서소문동 120-35,FD6,음식점,음식점 > 한식 > 국수,,11152625,02-753-5388,진주회관,http://place.map.kakao.com/11152625,서울 중구 세종대로11길 26,126.97450196830496,37.56230758617626
서울 서초구 서초동 1327-17,FD6,음식점,음식점 > 한식 > 국수,,14826741,02-523-3335,무아국수,http://place.map.kakao.com/14826741,서울 서초구 강남대로55길 9-15,127.027958315643,37.4947373050311
충북 충주시 금릉동 736,FD6,음식점,"음식점 > 한식 > 찌개,전골",,26328994,043-843-4408,터줏골명가,http://place.map.kakao.com/26328994,충북 충주시 금제7길 14,127.927014828037,36.989026040694
서울 노원구 중계동 81,FD6,음식점,음식점 > 한식 > 국수 > 칼국수,,11884233,02-951-5070,뚝배기바지락칼국수,http://place.map.kakao.com/11884233,서울 노원구 중계로 158,127.081047575213,37.6490388223318
서울 강북구 번동 269-7,FD6,음식점,음식점 > 한식 > 해장국,,8154336,02-915-1541,할머니해장국,http://place.map.kakao.com/8154336,서울 강북구 월계로37길 137-6,127.043469060789,37.6280044396834
서울 강남구 대치동 996-16,FD6,음식점,음식점 > 한식 > 해장국,,27531028,02-558-7905,중앙해장,http://place.map.kakao.com/27531028,서울 강남구 영동대로86길 17,127.065472540919,37.508273597184
서울 종로구 묘동 3-1,FD6,음식점,음식점 > 한식 > 국수,,378458912,070-4113-1214,잘빠진메밀 익선동점,http://place.map.kakao.com/378458912,서울 종로구 율곡로8길 73,126.991487248091,37.574039194599
서울 성북구 정릉동 465-4,FD6,음식점,음식점 > 한식 > 국수,,1429186456,02-911-2232,강릉메밀촌,http://place.map.kakao.com/1429186456,서울 성북구 정릉로26길 21,127.011564776627,37.6040383813703
경기 오산시 지곶동 278-3,FD6,음식점,음식점 > 한식 > 두부전문점,,15434242,031-372-3334,콩마당,http://place.map.kakao.com/15434242,경기 오산시 독산성로 225,127.024043853239,37.1774454561162
경기 고양시 덕양구 용두동 432-213,FD6,음식점,음식점 > 한식 > 해장국,,11520523,02-353-5057,미소복원조양평해장국 서오릉본점,http://place.map.kakao.com/11520523,경기 고양시 덕양구 서오릉로 374,126.89809025357339,37.62477173797223
서울 광진구 광장동 326-9,FD6,음식점,음식점 > 한식,,8005616,02-2201-4369,옛집,http://place.map.kakao.com/8005616,서울 광진구 아차산로76가길 18,127.106828264965,37.5471126395399
경기 의정부시 의정부동 481-11,FD6,음식점,"음식점 > 한식 > 육류,고기 > 닭요리",,16551914,031-874-6526,평양초계탕막국수,http://place.map.kakao.com/16551914,경기 의정부시 둔야로33번길 34,127.037706981891,37.7390105142286
경기 고양시 덕양구 화정동 975-3,FD6,음식점,음식점 > 한식,,21391356,,메밀공방,http://place.map.kakao.com/21391356,경기 고양시 덕양구 백양로 85,126.833746817189,37.6335210731602
서울 강동구 성내동 413-13,FD6,음식점,음식점 > 한식,,8177529,02-485-4675,고모네원조콩탕북어탕,http://place.map.kakao.com/8177529,서울 강동구 풍성로57길 13,127.13592868353,37.5296682063631
서울 강남구 삼성동 77-9,FD6,음식점,음식점 > 한식 > 국수,,7928439,02-3442-1957,삼성국수,http://place.map.kakao.com/7928439,서울 강남구 영동대로 611,127.05941431344392,37.51480277340062
서울 중구 충무로5가 8-2,FD6,음식점,음식점 > 한식 > 국수 > 칼국수,,19338775,02-2266-6556,만나손칼국수,http://place.map.kakao.com/19338775,서울 중구 동호로31길 29,127.00109789512533,37.56318610304924
서울 서초구 서초동 1308-1,FD6,음식점,음식점 > 한식 > 국수,,11891754,02-536-4133,강남교자 강남본점,http://place.map.kakao.com/11891754,서울 서초구 강남대로69길 11,127.024192602551,37.5014596439074
서울 용산구 용문동 8-95,FD6,음식점,음식점 > 한식 > 해장국,,10617612,02-712-6290,용문해장국,http://place.map.kakao.com/10617612,서울 용산구 효창원로 110,126.960882841969,37.5379678925348
서울 마포구 합정동 449-8,FD6,음식점,음식점 > 한식 > 국수,,13494990,02-322-5582,원당국수잘하는집,http://place.map.kakao.com/13494990,서울 마포구 동교로 22,126.904852895292,37.5518943163398
충북 증평군 증평읍 신동리 498,FD6,음식점,음식점 > 한식 > 국수,,10039855,043-838-2351,평창메밀,http://place.map.kakao.com/10039855,충북 증평군 증평읍 삼일로 9,127.58042780009937,36.779508283011985
인천 남동구 구월동 1265-1,FD6,음식점,음식점 > 한식 > 국수,,2087326990,032-468-0054,봉평메밀막국수,http://place.map.kakao.com/2087326990,인천 남동구 호구포로800번길 8,126.719720421073,37.453599714355
강원특별자치도 속초시 조양동 1519,FD6,음식점,음식점 > 한식 > 국수,,1497966317,033-636-6364,봉평막국수,http://place.map.kakao.com/1497966317,강원특별자치도 속초시 선사로4길 5,128.591664690579,38.1886547142851
서울 서대문구 연희동 193-6,FD6,음식점,음식점 > 한식 > 냉면,,8088062,02-334-3545,청송함흥냉면전문점 본관,http://place.map.kakao.com/8088062,서울 서대문구 연희맛로 6,126.928799476854,37.5659126768563
서울 종로구 낙원동 221,FD6,음식점,음식점 > 한식 > 냉면,,8041476,,유진식당,http://place.map.kakao.com/8041476,서울 종로구 종로17길 40,126.9883179183545,37.57204231870933
서울 마포구 동교동 168-3,FD6,음식점,음식점 > 한식 > 국밥 > 돈수백,,8431668,02-324-3131,돈수백 홍대직영점,http://place.map.kakao.com/8431668,서울 마포구 홍익로6길 74,126.92528145799916,37.556945587298486
강원특별자치도 춘천시 근화동 798-1,FD6,음식점,음식점 > 한식,,8549621,033-254-2232,춘천막국수,http://place.map.kakao.com/8549621,강원특별자치도 춘천시 당간지주길 76,127.72387432351212,37.89224745040491
강원특별자치도 평창군 대관령면 횡계리 302-4,FD6,음식점,음식점 > 한식 > 국수,,16828360,033-332-5599,봉평메밀촌,http://place.map.kakao.com/16828360,강원특별자치도 평창군 대관령면 꽃밭양지길 4,128.71053312844,37.6745447501647
경기 화성시 안녕동 188-562,FD6,음식점,음식점 > 한식 > 냉면,,8598381,031-223-1182,청학동칡냉면,http://place.map.kakao.com/8598381,경기 화성시 효행로 466,126.98552951231945,37.20949205803589
서울 강남구 대치동 894-4,FD6,음식점,음식점 > 한식 > 냉면,,10406623,02-3446-8966,반룡산,http://place.map.kakao.com/10406623,서울 강남구 테헤란로78길 26,127.05579495970723,37.50447271946909
서울 영등포구 영등포동3가 7-32,FD6,음식점,음식점 > 한식 > 냉면,,10643743,02-2678-2722,함흥냉면,http://place.map.kakao.com/10643743,서울 영등포구 영등포로42길 6,126.906790582264,37.5189660993437
서울 중구 오장동 90-10,FD6,음식점,음식점 > 한식 > 냉면,,20747449,02-2267-9500,오장동함흥냉면,http://place.map.kakao.com/20747449,서울 중구 마른내로 108,126.99987775835788,37.56427090773028
경기 화성시 안녕동 188-562,FD6,음식점,음식점 > 한식 > 냉면,,8598381,031-223-1182,청학동칡냉면,http://place.map.kakao.com/8598381,경기 화성시 효행로 466,126.98552951231945,37.20949205803589
충남 아산시 신창면 창암리 28-9,FD6,음식점,음식점 > 한식 > 냉면,,371913672,041-532-1033,박군자진주냉면,http://place.map.kakao.com/371913672,충남 아산시 신창면 순천향로 321,126.962575215228,36.7619219598433
경기 화성시 안녕동 188-562,FD6,음식점,음식점 > 한식 > 냉면,,8598381,031-223-1182,청학동칡냉면,http://place.map.kakao.com/8598381,경기 화성시 효행로 466,126.98552951231945,37.20949205803589
서울 서초구 방배동 797-19,FD6,음식점,음식점 > 한식 > 냉면,,24726061,02-536-1423,서초면옥 본점,http://place.map.kakao.com/24726061,서울 서초구 동광로 97,126.993115659813,37.4939439225313
서울 강남구 신사동 588-9,FD6,음식점,음식점 > 한식 > 냉면,,8163082,02-3446-5539,강남면옥 신사점,http://place.map.kakao.com/8163082,서울 강남구 논현로152길 34,127.030972783415,37.521409900961
서울 은평구 응암동 427-165,FD6,음식점,음식점 > 한식 > 냉면,,16413621,02-387-1434,시장냉면,http://place.map.kakao.com/16413621,서울 은평구 응암로22길 5-17,126.91879439285482,37.594327162306236
서울 은평구 응암동 427-165,FD6,음식점,음식점 > 한식 > 냉면,,16413621,02-387-1434,시장냉면,http://place.map.kakao.com/16413621,서울 은평구 응암로22길 5-17,126.91879439285482,37.594327162306236
서울 용산구 남영동 59-2,FD6,음식점,"음식점 > 양식 > 스테이크,립",,16684021,02-797-3217,다사랑스테이크,http://place.map.kakao.com/16684021,서울 용산구 한강대로84길 14,126.973422049719,37.5435972235053
경남 창원시 의창구 동읍 신방리 377-4,FD6,음식점,음식점 > 한식 > 국수,,20202976,055-253-8979,소바쟁이봉평메밀국수,http://place.map.kakao.com/20202976,경남 창원시 의창구 동읍 동읍로 217,128.675132146418,35.2940269420196
서울 서초구 방배동 925-18,FD6,음식점,"음식점 > 한식 > 찌개,전골",,21251540,02-588-0017,LA부대찌개,http://place.map.kakao.com/21251540,서울 서초구 효령로31길 90,126.994645147891,37.4849807768006
서울 중구 명동2가 4-2,FD6,음식점,"음식점 > 한식 > 찌개,전골",,15188892,02-753-3330,송탄부대찌개,http://place.map.kakao.com/15188892,서울 중구 명동10길 35-20,126.985811168704,37.5629311745487
경기 화성시 목동 459-1,FD6,음식점,"음식점 > 한식 > 찌개,전골",,569851804,031-376-1137,배부장찌개가 동탄목동점,http://place.map.kakao.com/569851804,경기 화성시 왕배산2길 4-12,127.12465012990828,37.18075227615271
충남 부여군 부여읍 동남리 270-1,FD6,음식점,음식점 > 한식,,1144508672,,두루애,http://place.map.kakao.com/1144508672,충남 부여군 부여읍 궁남로 35,126.913497665229,36.2730052162662
서울 성북구 동소문동5가 52-1,FD6,음식점,음식점 > 분식,,21402281,02-953-1257,이레김밥,http://place.map.kakao.com/21402281,서울 성북구 동소문로 86-2,127.014900913343,37.5920908651076
서울 강남구 역삼동 641-18,FD6,음식점,"음식점 > 한식 > 찌개,전골",,7819490,02-552-1663,대우부대찌개,http://place.map.kakao.com/7819490,서울 강남구 테헤란로25길 34,127.03522190118551,37.50270386227143
전북 군산시 영화동 12-1,FD6,음식점,음식점 > 중식 > 중국요리,,1559224601,070-4655-5431,황해짬뽕집,http://place.map.kakao.com/1559224601,전북 군산시 구영4길 44,126.71075007897883,35.98989769170125
경기 의정부시 의정부동 220-58,FD6,음식점,"음식점 > 한식 > 찌개,전골",,8007052,031-842-0423,허기숙할머니 원조오뎅식당 의정부본점,http://place.map.kakao.com/8007052,경기 의정부시 호국로1309번길 7,127.04949124004723,37.744086720134376
충북 음성군 금왕읍 유포리 111-5,FD6,음식점,"음식점 > 한식 > 찌개,전골",,14104303,043-881-1507,정가네부대찌개,http://place.map.kakao.com/14104303,충북 음성군 금왕읍 초금로 524,127.54886063676,36.9631155915707
서울 용산구 용산동3가 1-2,FD6,음식점,"음식점 > 한식 > 찌개,전골",,9583452,02-794-1408,신의주부대찌개,http://place.map.kakao.com/9583452,서울 용산구 한강대로62가길 20,126.974918688154,37.5346812537118
경기 의정부시 민락동 703-5,FD6,음식점,"음식점 > 한식 > 찌개,전골",,120534819,031-838-9966,동오부대찌개,http://place.map.kakao.com/120534819,경기 의정부시 용현로150번길 14-7,127.091928326259,37.7401420483834
서울 강남구 대치동 923-22,FD6,음식점,"음식점 > 한식 > 찌개,전골",,145560106,02-553-0135,대왕부대찌개 대치본점,http://place.map.kakao.com/145560106,서울 강남구 선릉로64길 15,127.053484361307,37.4980748448357
충남 금산군 금산읍 상리 39-10,FD6,음식점,"음식점 > 한식 > 찌개,전골",,10671200,041-751-2002,아우네부대찌개,http://place.map.kakao.com/10671200,충남 금산군 금산읍 금산로 1502,127.490219289501,36.1076430175717
경기 부천시 심곡동 384-4,FD6,음식점,음식점 > 한식 > 한정식,,26302175,032-654-8787,명동찌개마을,http://place.map.kakao.com/26302175,경기 부천시 부일로460번길 24,126.78098020191,37.4850337791334
서울 강남구 역삼동 619-26,FD6,음식점,"음식점 > 한식 > 찌개,전골 > 놀부부대찌개",,19197483,02-558-7564,놀부부대찌개 강남씨티점,http://place.map.kakao.com/19197483,서울 강남구 테헤란로1길 40,127.02720402205607,37.5008652258996
서울 강남구 대치동 891-41,FD6,음식점,"음식점 > 한식 > 찌개,전골",,1830663349,02-543-8288,JVL부대찌개 포스코점,http://place.map.kakao.com/1830663349,서울 강남구 선릉로90길 72,127.055037994887,37.5055362607758
서울 노원구 공릉동 633-18,FD6,음식점,음식점 > 한식 > 두부전문점,,8083654,02-972-7016,제일콩집,http://place.map.kakao.com/8083654,서울 노원구 동일로174길 37-8,127.077653612313,37.619477973192
경기 안양시 만안구 안양동 674-48,FD6,음식점,"음식점 > 한식 > 찌개,전골",,10489542,031-444-6426,석기정 본점,http://place.map.kakao.com/10489542,경기 안양시 만안구 장내로139번길 55,126.921263429545,37.3999024786619
서울 서초구 서초동 1660-27,FD6,음식점,"음식점 > 한식 > 찌개,전골",,21358043,02-522-9827,기세등등서병장 교대점,http://place.map.kakao.com/21358043,서울 서초구 서초중앙로20길 34-6,127.01588179390829,37.49224015204405
전북 익산시 송학동 262,,,"교통,수송 > 자동차 > 자동차정비 > 기아서비스센터 > 기아오토큐",,25079787,063-852-5119,기아오토큐 제일자동차,http://place.map.kakao.com/25079787,전북 익산시 군익로 446-1,126.93467454495357,35.94326865443897
전북 전주시 완산구 평화동1가 727-1,FD6,음식점,음식점 > 한식,,10893648,063-226-1080,토방,http://place.map.kakao.com/10893648,전북 전주시 완산구 평화18길 19,127.134469504549,35.7948090379014
서울 송파구 송파동 134-1,FD6,음식점,"음식점 > 한식 > 해물,생선 > 게,대게",,17296779,02-422-5081,본가진미간장게장,http://place.map.kakao.com/17296779,서울 송파구 백제고분로 420,127.1113038375213,37.50832579951229
경기 화성시 남양읍 남양리 525,FD6,음식점,음식점 > 중식 > 중국요리,,1563939256,031-356-0246,명량,http://place.map.kakao.com/1563939256,경기 화성시 남양읍 남양시장로24번길 7-12,126.813414665475,37.2076862604858
인천 남동구 도림동 96-2,FD6,음식점,"음식점 > 한식 > 해물,생선 > 게,대게",,18222870,032-446-8014,옹기꽃게장,http://place.map.kakao.com/18222870,인천 남동구 도림북로16번길 31,126.73289937804424,37.42473385160178
서울 송파구 가락동 122-1,FD6,음식점,"음식점 > 한식 > 육류,고기 > 닭요리 > 삼계탕",,13288835,02-418-3377,논현삼계탕죽 송파본점,http://place.map.kakao.com/13288835,서울 송파구 송이로 138,127.12350150880125,37.49435530101881
경기 화성시 향남읍 발안리 95-1,FD6,음식점,"음식점 > 한식 > 해물,생선 > 매운탕,해물탕",,20201580,,풍년명절,http://place.map.kakao.com/20201580,경기 화성시 향남읍 발안천길 45,126.906777464267,37.1313455070459
서울 종로구 체부동 85-1,FD6,음식점,"음식점 > 한식 > 육류,고기 > 닭요리 > 삼계탕",,26545925,02-737-7444,토속촌삼계탕,http://place.map.kakao.com/26545925,서울 종로구 자하문로5길 5,126.971494461387,37.5777229294346
서울 강서구 등촌동 648-11,FD6,음식점,"음식점 > 한식 > 육류,고기 > 닭요리 > 삼계탕",,1091362254,02-3661-8058,정일품삼계탕,http://place.map.kakao.com/1091362254,서울 강서구 공항대로59가길 10,126.864306973159,37.551959198227
서울 용산구 원효로1가 48-7,FD6,음식점,"음식점 > 한식 > 육류,고기 > 닭요리 > 삼계탕",,10126614,02-719-9978,강원정삼계탕,http://place.map.kakao.com/10126614,서울 용산구 원효로89길 13-10,126.967828988028,37.5404711653735
충남 태안군 안면읍 승언리 산 27,,,"여행 > 관광,명소 > 문화유적",,12777455,,안면도꽃지 할미할아비바위,http://place.map.kakao.com/12777455,,126.330428412509,36.5016312954296
서울 영등포구 문래동4가 9-2,FD6,음식점,"음식점 > 한식 > 육류,고기 > 닭요리",,11279164,02-2677-7373,능이버섯백숙,http://place.map.kakao.com/11279164,서울 영등포구 선유로 32,126.888871445967,37.5167341317029
서울 은평구 갈현동 481-2,FD6,음식점,"음식점 > 한식 > 육류,고기 > 닭요리 > 삼계탕",,10689637,02-355-0044,웅추삼계탕,http://place.map.kakao.com/10689637,서울 은평구 연서로27길 9,126.918433670023,37.617734625189
서울 중구 중림동 355,FD6,음식점,"음식점 > 한식 > 육류,고기 > 닭요리 > 삼계탕",,25689314,02-318-7330,예신라삼계탕 서소문점,http://place.map.kakao.com/25689314,서울 중구 청파로 464,126.968128039224,37.5609491365964
서울 중구 충무로2가 61-3,,,부동산 > 지명,,764181550,,진고개,http://place.map.kakao.com/764181550,서울 중구 퇴계로 141-10,126.987609864941,37.5617735964025
서울 중구 태평로2가 53,FD6,음식점,"음식점 > 한식 > 육류,고기 > 닭요리 > 삼계탕",,10735673,02-753-5834,장안삼계탕,http://place.map.kakao.com/10735673,서울 중구 세종대로18길 8,126.977503186199,37.5636867207938
전남 광양시 마동 1071-2,FD6,음식점,"음식점 > 한식 > 육류,고기 > 닭요리 > 삼계탕",,8763361,061-793-1034,고려삼계탕,http://place.map.kakao.com/8763361,전남 광양시 사동로 231,127.695378424851,34.9538299605935
서울 강서구 내발산동 657-1,FD6,음식점,"음식점 > 한식 > 육류,고기 > 닭요리 > 삼계탕",,8382068,02-3662-3930,발산삼계탕,http://place.map.kakao.com/8382068,서울 강서구 강서로 344,126.837825348799,37.5562830170175
서울 은평구 응암동 590-6,FD6,음식점,"음식점 > 한식 > 육류,고기 > 닭요리 > 삼계탕",,24954584,02-373-3086,백년토종삼계탕,http://place.map.kakao.com/24954584,서울 은평구 응암로13길 2,126.91674519455147,37.589988360216935
서울 강남구 삼성동 156-8,FD6,음식점,"음식점 > 한식 > 육류,고기 > 닭요리 > 삼계탕",,10941062,02-556-2616,원조한방정통삼계탕,http://place.map.kakao.com/10941062,서울 강남구 테헤란로81길 35,127.056284785948,37.5091505049034
서울 강남구 역삼동 831-18,FD6,음식점,"음식점 > 한식 > 육류,고기 > 닭요리 > 삼계탕",,8600335,02-564-9922,한방삼계탕,http://place.map.kakao.com/8600335,서울 강남구 강남대로 342,127.03007703147938,37.49365287322531
서울 강남구 역삼동 830-38,FD6,음식점,"음식점 > 한식 > 육류,고기 > 닭요리 > 삼계탕",,12519094,02-562-7892,한방대가삼계탕 강남본점,http://place.map.kakao.com/12519094,서울 강남구 역삼로5길 22,127.03197412382065,37.49538861536362
서울 종로구 종로5가 265-22,FD6,음식점,"음식점 > 한식 > 육류,고기 > 닭요리",,10785496,02-2275-9666,진옥화할매원조닭한마리 본점,http://place.map.kakao.com/10785496,서울 종로구 종로40가길 18,127.005696017003,37.5703380763098
서울 마포구 합정동 410-13,FD6,음식점,"음식점 > 한식 > 해물,생선 > 게,대게",,14681584,02-335-1831,홍일품,http://place.map.kakao.com/14681584,서울 마포구 독막로 47-1,126.918713324669,37.5480772311707
서울 영등포구 문래동4가 9-2,FD6,음식점,"음식점 > 한식 > 육류,고기 > 닭요리",,11279164,02-2677-7373,능이버섯백숙,http://place.map.kakao.com/11279164,서울 영등포구 선유로 32,126.888871445967,37.5167341317029
경북 포항시 북구 대신동 67-56,FD6,음식점,음식점 > 한식 > 국수 > 칼국수,,1022811481,010-5508-6658,부부칼국수,http://place.map.kakao.com/1022811481,경북 포항시 북구 삼호로47번길 15-10,129.36849358445,36.0463273912568
서울 광진구 중곡동 138-19,FD6,음식점,"음식점 > 한식 > 육류,고기 > 닭요리",,17662659,02-457-7270,장원닭한마리,http://place.map.kakao.com/17662659,서울 광진구 천호대로111길 46,127.08309504072663,37.55830049485199
경남 김해시 외동 1251,FD6,음식점,"음식점 > 한식 > 육류,고기 > 닭요리 > 삼계탕",,21516463,,대동삼계탕,http://place.map.kakao.com/21516463,경남 김해시 함박로101번길 23,128.865349670543,35.234327004511
서울 중구 명동2가 3-5,FD6,음식점,"음식점 > 한식 > 육류,고기 > 닭요리",,1141135126,02-735-4316,명동닭한마리,http://place.map.kakao.com/1141135126,서울 중구 명동10길 19-13,126.985543998553,37.5632122530373
경남 창원시 의창구 봉곡동 37-5,FD6,음식점,"음식점 > 한식 > 육류,고기 > 족발,보쌈",,21500187,055-237-5040,이조보쌈,http://place.map.kakao.com/21500187,경남 창원시 의창구 원이대로285번길 7,128.651495761706,35.2429898758349
서울 서대문구 홍은동 48-149,FD6,음식점,"음식점 > 한식 > 육류,고기 > 닭요리",,24940071,02-394-3919,산천마루,http://place.map.kakao.com/24940071,서울 서대문구 세검정로1길 21,126.942846266734,37.5925536919528
제주특별자치도 제주시 연동 292-36,FD6,음식점,음식점 > 한식,,12435417,064-743-1196,시골길,http://place.map.kakao.com/12435417,제주특별자치도 제주시 연동13길 9,126.49476943953,33.4887884428362
서울 성북구 삼선동5가 369,FD6,음식점,"음식점 > 한식 > 육류,고기 > 닭요리 > 삼계탕",,10698185,02-926-5138,원조한방삼계탕,http://place.map.kakao.com/10698185,서울 성북구 고려대로1길 92,127.017364085879,37.5891352738534
경기 의왕시 학의동 456,FD6,음식점,"음식점 > 한식 > 육류,고기 > 닭요리",,1115529178,031-425-0031,명가누룽지백숙,http://place.map.kakao.com/1115529178,경기 의왕시 학현로 150,127.014205035693,37.3856232070006
서울 서초구 방배동 450-14,FD6,음식점,"음식점 > 한식 > 육류,고기 > 족발,보쌈",,25770378,02-6959-2830,바른식 시골보쌈&감자옹심이 사당역별관점,http://place.map.kakao.com/25770378,서울 서초구 방배천로 12,126.9829511667976,37.47764365302684
서울 마포구 합정동 372-27,FD6,음식점,"음식점 > 한식 > 육류,고기 > 족발,보쌈",,17781427,02-333-8786,각시보쌈,http://place.map.kakao.com/17781427,서울 마포구 성지길 25,126.913449674268,37.5475112672559
서울 용산구 원효로1가 43-12,FD6,음식점,"음식점 > 한식 > 육류,고기 > 족발,보쌈",,12439290,02-714-5353,원보쌈,http://place.map.kakao.com/12439290,서울 용산구 백범로90라길 51,126.969861576471,37.5394733936423
서울 동작구 대방동 339-1,FD6,음식점,"음식점 > 한식 > 육류,고기 > 닭요리 > 삼계탕",,7995433,02-824-5215,약초마을,http://place.map.kakao.com/7995433,서울 동작구 노량진로 26,126.92892786252973,37.51295288022981
서울 마포구 연남동 258-17,FD6,음식점,음식점 > 한식 > 감자탕,,663398130,02-3141-6557,송가네감자탕,http://place.map.kakao.com/663398130,서울 마포구 동교로 245,126.924066665182,37.5618192051882
서울 은평구 녹번동 206,FD6,음식점,음식점 > 한식 > 국수 > 칼국수,,11616973,02-3142-3198,충무칼국수,http://place.map.kakao.com/11616973,서울 은평구 은평로 193,126.92921601435597,37.60178326549819
서울 용산구 원효로1가 43-12,FD6,음식점,"음식점 > 한식 > 육류,고기 > 족발,보쌈",,12439290,02-714-5353,원보쌈,http://place.map.kakao.com/12439290,서울 용산구 백범로90라길 51,126.969861576471,37.5394733936423
서울 종로구 관수동 42,FD6,음식점,"음식점 > 한식 > 해물,생선 > 굴,전복",,9820808,02-2273-0266,삼해집,http://place.map.kakao.com/9820808,서울 종로구 수표로20길 16-15,126.990917212,37.5699270104242
경기 안양시 만안구 석수동 95-5,FD6,음식점,음식점 > 한식,,503554162,031-472-0100,흥부가,http://place.map.kakao.com/503554162,경기 안양시 만안구 삼막로 34-15,126.911610643245,37.4219201766412
경기 부천시 심곡본동 670-6,FD6,음식점,"음식점 > 한식 > 육류,고기 > 닭요리 > 삼계탕",,11995175,032-651-7155,고구려삼계탕,http://place.map.kakao.com/11995175,경기 부천시 경인로224번길 15,126.780354216083,37.482578274338
서울 용산구 신계동 25-12,FD6,음식점,"음식점 > 한식 > 육류,고기 > 족발,보쌈",,16414541,02-715-4234,장군보쌈,http://place.map.kakao.com/16414541,서울 용산구 새창로45길 29,126.963939320217,37.534829779636
서울 강북구 미아동 55-18,FD6,음식점,"음식점 > 한식 > 육류,고기 > 닭요리",,75946312,02-989-2084,오복닭한마리,http://place.map.kakao.com/75946312,서울 강북구 도봉로10가길 9,127.031127454619,37.613159163542
대전 유성구 봉명동 546-3,FD6,음식점,음식점 > 한식 > 해장국,,1479160164,042-822-1589,전주집,http://place.map.kakao.com/1479160164,대전 유성구 온천로 74,127.34618447167475,36.35457993877486
서울 성동구 금호동3가 375,FD6,음식점,"음식점 > 한식 > 육류,고기 > 족발,보쌈",,10666203,02-2297-9922,은성보쌈,http://place.map.kakao.com/10666203,서울 성동구 독서당로 299-5,127.022315699546,37.5484490848938
서울 송파구 방이동 113-4,FD6,음식점,음식점 > 한식 > 국수 > 칼국수,,914537660,,최고집손칼국수 방이동본점,http://place.map.kakao.com/914537660,서울 송파구 백제고분로48길 16,127.11490143016917,37.511156012932105
인천 연수구 동춘동 800-4,FD6,음식점,"음식점 > 한식 > 육류,고기 > 닭요리 > 삼계탕",,15655737,032-832-3380,궁중삼계탕,http://place.map.kakao.com/15655737,인천 연수구 청량로 84,126.657347593964,37.4158703462024
서울 서초구 양재동 83-12,FD6,음식점,"음식점 > 한식 > 육류,고기 > 닭요리 > 삼계탕",,9574208,02-579-9200,양재한방삼계탕,http://place.map.kakao.com/9574208,서울 서초구 바우뫼로 202,127.041587747846,37.4799135137132
서울 마포구 망원동 414-20,FD6,음식점,음식점 > 한식 > 국수,,2143093783,02-322-8762,고향집,http://place.map.kakao.com/2143093783,서울 마포구 포은로8길 28,126.90630244695804,37.55651759279587
서울 영등포구 여의도동 45-19,FD6,음식점,"음식점 > 한식 > 육류,고기 > 닭요리 > 삼계탕",,8117894,02-780-9037,파낙스,http://place.map.kakao.com/8117894,서울 영등포구 여의대방로65길 17,126.929300373452,37.5197421647558
서울 중구 명동2가 55-4,FD6,음식점,음식점 > 분식,,8995971,,명화당 명동1호점,http://place.map.kakao.com/8995971,서울 중구 명동4길 32,126.98388263612587,37.56230761762366
충남 서산시 팔봉면 진장리 1102,OL7,"주유소,충전소","교통,수송 > 자동차 > 주유,가스 > 주유소 > GS칼텍스",,85917868,041-662-6897,이레주유소,http://place.map.kakao.com/85917868,충남 서산시 팔봉면 서해로 2294,126.35063382651,36.7710014889661
전북 군산시 신영동 14-9,FD6,음식점,음식점 > 한식 > 순대,,12182980,063-442-9922,회현집,http://place.map.kakao.com/12182980,전북 군산시 동신영길 19,126.719926425134,35.9839929605499
서울 강남구 청담동 88,FD6,음식점,음식점 > 한식,,27228606,02-544-2377,오통영 청담점,http://place.map.kakao.com/27228606,서울 강남구 선릉로158길 10,127.0408392047067,37.52542717459758
서울 중구 필동2가 84-101,FD6,음식점,음식점 > 한식,,15752376,02-2268-1569,두리식당,http://place.map.kakao.com/15752376,서울 중구 퇴계로36나길 33,126.993653148864,37.5564987380355
서울 종로구 누상동 52,FD6,음식점,음식점 > 분식,,18643183,02-723-7775,남도분식 서촌점,http://place.map.kakao.com/18643183,서울 종로구 옥인2길 2,126.966964763954,37.5809256832267
서울 용산구 한남동 738-24,FD6,음식점,"음식점 > 한식 > 육류,고기 > 삼겹살",,8194939,02-793-4860,나리의집,http://place.map.kakao.com/8194939,서울 용산구 이태원로 245,127.000126722915,37.5369904787104
서울 영등포구 여의도동 43-3,FD6,음식점,"음식점 > 한식 > 찌개,전골",,8538563,02-761-6616,장독대김치찌개,http://place.map.kakao.com/8538563,서울 영등포구 국제금융로 78,126.931371511408,37.5210624545028
서울 송파구 잠실동 207-19,FD6,음식점,음식점 > 한식,,10815967,,탕,http://place.map.kakao.com/10815967,서울 송파구 백제고분로15길 48,127.084782886875,37.5096524665812
서울 송파구 가락동 166-5,FD6,음식점,음식점 > 분식,,18480503,02-409-0910,단풍애김밥 개롱역점,http://place.map.kakao.com/18480503,서울 송파구 오금로 396,127.133980419392,37.4979803421851
서울 중구 신당동 304-99,,,"가정,생활 > 슈퍼마켓",,16328332,02-2235-6886,가나안슈퍼,http://place.map.kakao.com/16328332,서울 중구 다산로33라길 12,127.012957501869,37.5636232813743
서울 영등포구 여의도동 45-11,FD6,음식점,"음식점 > 한식 > 육류,고기 > 곱창,막창",,20643250,,장호왕곱창,http://place.map.kakao.com/20643250,서울 영등포구 국제금융로8길 25,126.928607468552,37.5203868660194
서울 중구 다동 155,FD6,음식점,"음식점 > 한식 > 찌개,전골",,1290648087,02-6031-8961,대독장,http://place.map.kakao.com/1290648087,서울 중구 남대문로9길 40,126.98033871531054,37.56713984412992
부산 수영구 민락동 176-32,FD6,음식점,음식점 > 한식 > 해장국,,10507999,051-753-5821,새벽집,http://place.map.kakao.com/10507999,부산 수영구 광안해변로 267,129.12288000634,35.1558103340787
광주 서구 화정동 918-13,FD6,음식점,"음식점 > 술집 > 호프,요리주점",,12372116,062-372-5166,옹달샘,http://place.map.kakao.com/12372116,광주 서구 염화로83번길 4-8,126.8740434379311,35.14233989282212
서울 종로구 인사동 183-4,FD6,음식점,음식점 > 분식,,27316408,02-733-2587,예술김밥 본점,http://place.map.kakao.com/27316408,서울 종로구 인사동5길 4,126.98583415909194,37.573018725407756
서울 서초구 서초동 1316,CE7,카페,음식점 > 카페 > 테마카페 > 디저트카페,,19232112,02-597-5511,장꼬방,http://place.map.kakao.com/19232112,서울 서초구 강남대로61길 27,127.023807097178,37.498331428974
서울 마포구 도화동 181-45,FD6,음식점,음식점 > 한식,,12079226,02-712-0066,굴다리식당,http://place.map.kakao.com/12079226,서울 마포구 새창로 8-1,126.950805519086,37.5421087241179
서울 영등포구 여의도동 21-3,FD6,음식점,"음식점 > 한식 > 찌개,전골",,16622191,02-784-9213,희정식당,http://place.map.kakao.com/16622191,서울 영등포구 여의나루로 117,126.930905207061,37.5262339360571
서울 마포구 서교동 478-2,FD6,음식점,"음식점 > 한식 > 찌개,전골",,20691983,02-333-6820,의정부부대찌개,http://place.map.kakao.com/20691983,서울 마포구 월드컵로10길 36,126.913685416543,37.5550437832412
서울 마포구 대흥동 337-62,FD6,음식점,"음식점 > 한식 > 해물,생선",,15963187,02-706-5454,군자네,http://place.map.kakao.com/15963187,서울 마포구 대흥로 53,126.939501022861,37.5455200629511
서울 강동구 상일동 286,FD6,음식점,"음식점 > 한식 > 육류,고기 > 갈비",,1587196355,02-429-3001,상일뚝방집,http://place.map.kakao.com/1587196355,서울 강동구 천호대로221길 37,127.17260518835575,37.548594437791905
경기 하남시 창우동 4-13,FD6,음식점,"음식점 > 한식 > 육류,고기 > 닭요리",,8437378,031-795-6677,소나무집,http://place.map.kakao.com/8437378,경기 하남시 검단산로 342-13,127.23756838641073,37.541051081780324
서울 종로구 종로3가 107-2,FD6,음식점,음식점 > 한식 > 설렁탕,,8074478,02-2271-3820,종로설렁탕,http://place.map.kakao.com/8074478,서울 종로구 종로 110,126.98975583008657,37.5699161034148
서울 노원구 상계동 693-4,FD6,음식점,"음식점 > 한식 > 찌개,전골",,26838989,02-939-5315,화덕피자주는부대찌개 노원점,http://place.map.kakao.com/26838989,서울 노원구 상계로 59,127.06151337636754,37.656161180212635
대구 중구 남일동 88-1,FD6,음식점,음식점 > 한식,,26962305,053-424-8653,한옥집김치찜,http://place.map.kakao.com/26962305,대구 중구 중앙대로 404-3,128.59411526894982,35.86923152728406
경기 하남시 창우동 516-4,FD6,음식점,"음식점 > 한식 > 해물,생선 > 매운탕,해물탕",,13302853,031-792-3815,털보집,http://place.map.kakao.com/13302853,경기 하남시 검단산로 379,127.240563237934,37.5420253042662
서울 중구 을지로2가 101-32,FD6,음식점,음식점 > 한식 > 설렁탕,,10668060,02-2267-4081,이남장 본점,http://place.map.kakao.com/10668060,서울 중구 삼일대로12길 16,126.988658328569,37.5666688146651
서울 강남구 역삼동 671-17,FD6,음식점,음식점 > 한식 > 곰탕,,14569639,02-569-0524,이도곰탕 본점,http://place.map.kakao.com/14569639,서울 강남구 논현로94길 29-5,127.038461247911,37.5033732001773
서울 종로구 도렴동 60,FD6,음식점,"음식점 > 한식 > 찌개,전골",,15449028,02-738-1386,송백부대찌개,http://place.map.kakao.com/15449028,서울 종로구 새문안로5길 37,126.974212836277,37.5736474553181
경기 부천시 중동 597-4,FD6,음식점,음식점 > 한식,,68347859,032-612-4940,한옥집,http://place.map.kakao.com/68347859,경기 부천시 부흥로207번길 7,126.765603914622,37.4963569447965
충남 청양군 대치면 작천리,,,부동산 > 지명,,25191099,,까치네,http://place.map.kakao.com/25191099,,126.856769455822,36.3967623832203
서울 동대문구 용두동 24-14,FD6,음식점,음식점 > 한식 > 순대,,15852903,02-962-0054,왕순대국,http://place.map.kakao.com/15852903,서울 동대문구 고산자로 426,127.03866355580828,37.577621831132085
서울 마포구 망원동 414-20,FD6,음식점,음식점 > 한식 > 국수,,2143093783,02-322-8762,고향집,http://place.map.kakao.com/2143093783,서울 마포구 포은로8길 28,126.90630244695804,37.55651759279587
경기 화성시 안녕동 188-562,FD6,음식점,음식점 > 한식 > 냉면,,8598381,031-223-1182,청학동칡냉면,http://place.map.kakao.com/8598381,경기 화성시 효행로 466,126.98552951231945,37.20949205803589
서울 종로구 필운동 202,FD6,음식점,음식점 > 분식,,8931203,02-738-7865,라면점빵,http://place.map.kakao.com/8931203,서울 종로구 자하문로1길 39,126.970109253696,37.5766053538961
서울 영등포구 신길동 342-108,FD6,음식점,"음식점 > 한식 > 육류,고기 > 닭요리 > 삼계탕",,8510748,02-848-2440,원조호수삼계탕 본점,http://place.map.kakao.com/8510748,서울 영등포구 도림로 276,126.90437032639205,37.502637068435256
서울 종로구 체부동 85-1,FD6,음식점,"음식점 > 한식 > 육류,고기 > 닭요리 > 삼계탕",,26545925,02-737-7444,토속촌삼계탕,http://place.map.kakao.com/26545925,서울 종로구 자하문로5길 5,126.971494461387,37.5777229294346
서울 강남구 개포동 1193-7,FD6,음식점,"음식점 > 한식 > 육류,고기 > 닭요리",,9956715,02-3461-4422,원조닭한마리,http://place.map.kakao.com/9956715,서울 강남구 논현로10길 13,127.049624924557,37.4744647098884
서울 중구 명동2가 50-11,FD6,음식점,"음식점 > 한식 > 육류,고기 > 닭요리 > 삼계탕",,7885138,02-776-3267,백제삼계탕,http://place.map.kakao.com/7885138,서울 중구 명동8길 8-10,126.98408613996895,37.56337424489192
경기 의왕시 학의동 593-1,FD6,음식점,"음식점 > 한식 > 육류,고기 > 닭요리",,8599746,031-426-0300,청운누룽지백숙 본점,http://place.map.kakao.com/8599746,경기 의왕시 의일로 11,127.004696645387,37.3739611058113
경남 창원시 성산구 대방동 343-1,FD6,음식점,"음식점 > 한식 > 육류,고기 > 오리",,18557916,055-283-2304,가랑,http://place.map.kakao.com/18557916,경남 창원시 성산구 대암로115번길 6-1,128.709491039506,35.2156382307011
경기 용인시 처인구 포곡읍 마성리 270-2,OL7,"주유소,충전소","교통,수송 > 자동차 > 주유,가스 > 주유소 > 농협주유소",,879897773,031-321-5844,포곡농협 가득채움주유소,http://place.map.kakao.com/879897773,경기 용인시 처인구 포곡읍 석성로 871,127.19311241601015,37.278819527327165
울산 중구 남외동 513-6,FD6,음식점,"음식점 > 한식 > 육류,고기 > 족발,보쌈",,23943517,052-260-0852,장원보쌈,http://place.map.kakao.com/23943517,울산 중구 남외1길 58,129.350318847104,35.5671759286158
경기 여주시 가남읍 태평리 174-4,FD6,음식점,음식점 > 분식,,11157672,031-884-3893,즉석김밥,http://place.map.kakao.com/11157672,경기 여주시 가남읍 태평로 46,127.544648084665,37.2040167474417
서울 송파구 석촌동 183-3,FD6,음식점,"음식점 > 한식 > 찌개,전골",,1683687914,02-2203-0067,오모리찌개 잠실본점,http://place.map.kakao.com/1683687914,서울 송파구 송파대로 471,127.104121415955,37.5080115913057
서울 마포구 연남동 229-64,FD6,음식점,"음식점 > 한식 > 찌개,전골",,2143122274,,낭풍,http://place.map.kakao.com/2143122274,서울 마포구 동교로 253,126.924392995291,37.562579855584
서울 성동구 성수동1가 656-835,FD6,음식점,"음식점 > 한식 > 육류,고기",,1814522692,02-2922-6696,성일한우정육점,http://place.map.kakao.com/1814522692,서울 성동구 아차산로3길 7,127.0469262081,37.5482400454215
서울 강남구 삼성동 118-21,FD6,음식점,음식점 > 양식,,27271692,02-538-8915,비야게레로,http://place.map.kakao.com/27271692,서울 강남구 봉은사로78길 12,127.052803174639,37.5119524342741
서울 영등포구 여의도동 36-2,FD6,음식점,음식점 > 한식 > 국수,,8094563,,진주집,http://place.map.kakao.com/8094563,서울 영등포구 국제금융로6길 33,126.9269500559961,37.52059128119736
서울 양천구 신정동 903-30,FD6,음식점,음식점 > 한식 > 국수,,20551643,02-2631-4107,손가네,http://place.map.kakao.com/20551643,서울 양천구 오목로 205-2,126.860231496206,37.5260525117832
